{"type": "FeatureCollection", "features": [ {"type": "Feature", "properties": {"norad_id": 58655, "name": "BEIDOU-3 M26 (C48)", "group": "beidou", "lat": 37.522176796735934, "lon": 100.5439036755241, "alt_km": 21532.377726452316, "timestamp": "2025-12-05T20:43:02.321015+00:00", "meta": {"OBJECT_NAME": "BEIDOU-3 M26 (C48)", "OBJECT_ID": "2023-207B", "EPOCH": "2025-12-03T02:34:45.227424", "MEAN_MOTION": 1.86231091, "ECCENTRICITY": 0.00034591, "INCLINATION": 55.5782, "RA_OF_ASC_NODE": 68.9139, "ARG_OF_PERICENTER": 250.5367, "MEAN_ANOMALY": 109.429, "EPHEMERIS_TYPE": 0, "CLASSIFICATION_TYPE": "U", "NORAD_CAT_ID": 58655, "ELEMENT_SET_NO": 999, "REV_AT_EPOCH": 1317, "BSTAR": 0, "MEAN_MOTION_DOT": -5e-07, "MEAN_MOTION_DDOT": 0}, "tle": {"line1": "1 58655U 23207B   25337.10746791 -.00000050  00000+0  00000+0 0  9992", "line2": "2 58655  55.5782  68.9139 0003459 250.5367 109.4290  1.86231091 13176"}}, "geometry": {"type": "Point", "coordinates": [100.5439036755241, 37.522176796735934]}}, {"type": "Feature", "properties": {"norad_id": 61186, "name": "BEIDOU-3 M25 (C47)", "group": "beidou", "lat": 12.586278272336246, "lon": 119.82113633766508, "alt_km": 21536.652720722053, "timestamp": "2025-12-05T20:43:02.321027+00:00", "meta": {"OBJECT_NAME": "BEIDOU-3 M25 (C47)", "OBJECT_ID": "2024-168B", "EPOCH": "2025-12-05T05:13:31.135872", "MEAN_MOTION": 1.86229714, "ECCENTRICITY": 0.00054853, "INCLINATION": 54.6489, "RA_OF_ASC_NODE": 308.9806, "ARG_OF_PERICENTER": 294.5401, "MEAN_ANOMALY": 157.173, "EPHEMERIS_TYPE": 0, "CLASSIFICATION_TYPE": "U", "NORAD_CAT_ID": 61186, "ELEMENT_SET_NO": 999, "REV_AT_EPOCH": 817, "BSTAR": 0, "MEAN_MOTION_DOT": -7e-07, "MEAN_MOTION_DDOT": 0}, "tle": {"line1": "1 61186U 24168B   25339.21772148 -.00000070  00000+0  00000+0 0  9993", "line2": "2 61186  54.6489 308.9806 0005485 294.5401 157.1730  1.86229714  8171"}}, "geometry": {"type": "Point", "coordinates": [119.82113633766508, 12.586278272336246]}}, {"type": "Feature", "properties": {"norad_id": 61187, "name": "BEIDOU-3 M27 (C49)", "group": "beidou", "lat": -45.253505237896405, "lon": -96.797622392792, "alt_km": 21527.896066197773, "timestamp": "2025-12-05T20:43:02.321037+00:00", "meta": {"OBJECT_NAME": "BEIDOU-3 M27 (C49)", "OBJECT_ID": "2024-168C", "EPOCH": "2025-12-05T03:27:10.204704", "MEAN_MOTION": 1.86229855, "ECCENTRICITY": 0.00022725, "INCLINATION": 54.6444, "RA_OF_ASC_NODE": 308.9668, "ARG_OF_PERICENTER": 330.3583, "MEAN_ANOMALY": 206.7783, "EPHEMERIS_TYPE": 0, "CLASSIFICATION_TYPE": "U", "NORAD_CAT_ID": 61187, "ELEMENT_SET_NO": 999, "REV_AT_EPOCH": 564, "BSTAR": 0, "MEAN_MOTION_DOT": -7e-07, "MEAN_MOTION_DDOT": 0}, "tle": {"line1": "1 61187U 24168C   25339.14386811 -.00000070  00000+0  00000+0 0  9994", "line2": "2 61187  54.6444 308.9668 0002272 330.3583 206.7783  1.86229855  5644"}}, "geometry": {"type": "Point", "coordinates": [-96.797622392792, -45.253505237896405]}}]}